[{"OBJECT_NAME":"STARLINK-32099","OBJECT_ID":"2024-086R","EPOCH":"2026-03-09T08:32:34.498176","MEAN_MOTION":15.27581203,"ECCENTRICITY":4.112e-5,"INCLINATION":43.0018,"RA_OF_ASC_NODE":61.5632,"ARG_OF_PERICENTER":256.7357,"MEAN_ANOMALY":103.3449,"EPHEMERIS_TYPE":0,"CLASSIFICATION_TYPE":"U","NORAD_CAT_ID":59697,"ELEMENT_SET_NO":999,"REV_AT_EPOCH":10406,"BSTAR":8.583068e-6,"MEAN_MOTION_DOT":-2.6e-7,"MEAN_MOTION_DDOT":0},{"OBJECT_NAME":"OBJECT P","OBJECT_ID":"2018-099P","EPOCH":"2026-03-09T16:35:55.790016","MEAN_MOTION":15.30834106,"ECCENTRICITY":0.00076856,"INCLINATION":97.4366,"RA_OF_ASC_NODE":131.9195,"ARG_OF_PERICENTER":276.7627,"MEAN_ANOMALY":83.2739,"EPHEMERIS_TYPE":0,"CLASSIFICATION_TYPE":"U","NORAD_CAT_ID":43771,"ELEMENT_SET_NO":999,"REV_AT_EPOCH":39830,"BSTAR":0.00063632878,"MEAN_MOTION_DOT":0.00018926,"MEAN_MOTION_DDOT":0}]
